[{"OBJECT_NAME":"STARLINK-31510","OBJECT_ID":"2024-076M","EPOCH":"2026-03-09T04:18:28.050048","MEAN_MOTION":15.27587823,"ECCENTRICITY":6.423e-5,"INCLINATION":43.0034,"RA_OF_ASC_NODE":8.518,"ARG_OF_PERICENTER":282.3748,"MEAN_ANOMALY":77.7032,"EPHEMERIS_TYPE":0,"CLASSIFICATION_TYPE":"U","NORAD_CAT_ID":59575,"ELEMENT_SET_NO":999,"REV_AT_EPOCH":10646,"BSTAR":0.0001085808,"MEAN_MOTION_DOT":2.728e-5,"MEAN_MOTION_DDOT":0},{"OBJECT_NAME":"FLOCK 4G-24","OBJECT_ID":"2025-009AE","EPOCH":"2026-03-09T17:24:07.838208","MEAN_MOTION":15.27784978,"ECCENTRICITY":0.0001802,"INCLINATION":97.4061,"RA_OF_ASC_NODE":151.514,"ARG_OF_PERICENTER":280.2808,"MEAN_ANOMALY":79.8228,"EPHEMERIS_TYPE":0,"CLASSIFICATION_TYPE":"U","NORAD_CAT_ID":62637,"ELEMENT_SET_NO":999,"REV_AT_EPOCH":6373,"BSTAR":0.00038996067,"MEAN_MOTION_DOT":0.00010513,"MEAN_MOTION_DDOT":0}]
